H-2A R/B                
1 28932U 06002B   26199.16204575  .00004262  00000+0  20390-3 0  9999
2 28932  98.2601 357.8078 0050971 156.0067 204.3557 15.18473670114225
RESURS-DK 1             
1 29228U 06021A   26199.56535781  .00000867  00000+0  54664-4 0  9998
2 29228  69.9304 258.3198 0007302 267.3280  92.7050 15.13325666107326
CZ-4B R/B               
1 29507U 06046C   26199.56613319  .00001923  00000+0  96748-4 0  9992
2 29507  97.5434 244.0773 0032916 170.4924 189.6940 15.17996210 79893
CZ-2C R/B               
1 31114U 07010B   26199.55036569  .00000045  00000+0  40060-4 0  9996
2 31114  98.4121 306.3709 0057724 273.8109  85.6470 14.20282332998294
COSMO-SKYMED 1          
1 31598U 07023A   26199.61378941  .00001579  00000+0  14165-3 0  9995
2 31598  97.8850  31.7358 0001691 100.5171 259.6241 14.97230090 34498
COSMOS 2428             
1 31792U 07029A   26199.50625017  .00000283  00000+0  17768-3 0  9997
2 31792  70.9383 288.7199 0007248  74.7600 285.4322 14.12936588982577
SL-16 R/B               
1 31793U 07029B   26199.59066204  .00000282  00000+0  17099-3 0  9990
2 31793  70.9742 257.2149 0001914 257.3549 264.6800 14.14853609983887
KORONAS-FOTON           
1 33504U 09003A   26199.27514554  .00007391  00000+0  14858-3 0  9995
2 33504  82.4311 139.8160 0011894  52.9228 307.3107 15.46346873965902
CZ-2C R/B               
1 37731U 11030B   26199.32979226  .00000429  00000+0  60484-4 0  9993
2 37731  97.8671 154.1587 0050708 285.6816 230.2841 14.81535588809430
H-2A R/B                
1 38341U 12025E   26199.39681894  .00000707  00000+0  68496-4 0  9994
2 38341  98.4847 177.1221 0042637 244.2112 115.4704 14.95842011767759
SHIJIAN-16 (SJ-16)      
1 39358U 13057A   26199.67448238  .00000286  00000+0  30515-4 0  9996
2 39358  74.9741 297.0447 0015671 156.3292 203.8621 14.92674866691048
SL-4 R/B                
1 39679U 14021B   26198.90722666  .00005760  00000+0  12227-3 0  9990
2 39679  51.6063  60.2073 0089546 218.4688 140.9892 15.42515791676354
ALOS-2                  
1 39766U 14029A   26199.58845028  .00000929  00000+0  13125-3 0  9998
2 39766  97.9232 296.3037 0001616  91.6846 268.4551 14.79473285656225
YAOGAN-29               
1 41038U 15069A   26199.61767545 -.00000132  00000+0 -95875-5 0  9991
2 41038  98.0013 228.2986 0000462   1.7312 358.3903 14.83106731575284
ASTRO-H (HITOMI)        
1 41337U 16012A   26199.42100276  .00001185  00000+0  64174-4 0  9997
2 41337  30.9977 232.4505 0009646 207.7740 152.2384 15.10639796572015
HXMT (HUIYAN)           
1 42758U 17034A   26199.57418634  .00001880  00000+0  99475-4 0  9990
2 42758  43.0153   8.2384 0031872 341.9513  18.0202 15.18704649502438
SAOCOM 1A               
1 43641U 18076A   26199.59597656 -.00000233  00000+0 -22674-4 0  9993
2 43641  97.8884  25.8876 0001413  86.6747 273.4628 14.82146839420753
H-2A R/B                
1 43682U 18084L   26199.26531706  .00011428  00000+0  23268-3 0  9990
2 43682  98.8523  84.9703 0020368 288.9138  70.9899 15.46275522425922
SAOCOM 1B               
1 46265U 20059A   26199.62716990  .00000442  00000+0  62145-4 0  9997
2 46265  97.8891  25.0149 0001518  84.3665 275.7722 14.82145997318144
CSS (TIANHE)            
1 48274U 21035A   26198.52240887  .00001129  00000+0  18813-4 0  9995
2 48274  41.4691 137.7269 0001921 301.5742  58.4908 15.58143309297902
COSMOS 2550             
1 48865U 21056A   26199.65003088  .00002692  00000+0  87583-4 0  9995
2 48865  67.1439   4.7319 0008535 269.7438  90.2738 15.33847804283541
CZ-2C R/B               
1 52794U 22058K   26199.50494360  .00023418  00000+0  24205-3 0  9995
2 52794  50.1860   0.2868 0030142  36.5675 323.7350 15.64029106230546
CZ-2C R/B               
1 54039U 22132E   26198.99741093  .00044818  00000+0  29840-3 0  9999
2 54039  97.2889 207.4843 0008934 329.3088  30.7654 15.75241570210792
GSLV R/B                
1 54149U 22138AN  26199.19408279  .00001492  00000+0  12523-3 0  9997
2 54149  87.3816 122.5725 0023187  42.3526 317.9490 14.97390721203455
XRISM                   
1 57800U 23137A   26199.20568667  .00002291  00000+0  12223-3 0  9999
2 57800  31.0010 158.6362 0007853 276.0934  83.8810 15.12682622157569
ACS3                    
1 59588U 24077B   26199.19440608  .00006221  00000+0  43059-2 0  9997
2 59588  97.1755 111.1141 0128757  33.4328 327.4885 13.95327555112369
SPACEMOBILE-003         
1 61045U 24163A   26199.17082198  .00001268  00000+0  71565-4 0  9999
2 61045  52.9670 166.9598 0004461 203.3197 156.7595 15.20713856102482
SPACEMOBILE-005         
1 61046U 24163B   26199.28569049  .00002152  00000+0  11126-3 0  9996
2 61046  52.9757 166.3840 0008560 205.2960 154.7616 15.20722937102499
SPACEMOBILE-001         
1 61047U 24163C   26199.15258188  .00000103  00000+0  19359-4 0  9993
2 61047  52.9727 166.7053 0006783 200.9381 159.1336 15.20705143102477
SPACEMOBILE-002         
1 61048U 24163D   26199.26788476 -.00009691  00000+0 -42132-3 0  9991
2 61048  52.9785 166.2157 0005413 203.1224 156.9528 15.20679207102493
